NORAD_CAT_ID,OBJECT_NAME,OBJECT_TYPE,EPOCH,MEAN_MOTION,ECCENTRICITY,INCLINATION,RA_OF_ASC_NODE,ARG_OF_PERICENTER,MEAN_ANOMALY,BSTAR,MEAN_MOTION_DOT,MEAN_MOTION_DDOT,TLE_LINE0,TLE_LINE1,TLE_LINE2,SEMIMAJOR_AXIS,PERIOD,APOGEE,PERIGEE,DECAYED
55647.0,STARLINK-5510,PAYLOAD,2024-04-04 13:32:07,14.98332781,0.0002909,70.0001,159.6705,268.8694,91.2132,-0.00010356,-1.328e-05,0.0,0 STARLINK-5510,1 55647U 23021V   24095.56397854 -.00001328  00000-0 -10356-3 0  9996,2 55647  70.0001 159.6705 0002909 268.8694  91.2132 14.98332781 63321,6950.184,96.107,574.071,570.027,0.0
55647.0,STARLINK-5510,PAYLOAD,2024-04-04 21:32:47,14.98338042,0.0002989,70.0,158.829,269.1393,90.9423,-8.6814e-05,-1.129e-05,0.0,0 STARLINK-5510,1 55647U 23021V   24095.89777370 -.00001129  00000-0 -86814-4 0  9999,2 55647  70.0000 158.8290 0002989 269.1393  90.9423 14.98338042 63378,6950.168,96.106,574.11,569.956,0.0
55647.0,STARLINK-5510,PAYLOAD,2024-04-05 05:33:27,14.98330613,0.0003081,69.9996,157.9867,269.6696,90.411,9.8157e-05,1.078e-05,0.0,0 STARLINK-5510,1 55647U 23021V   24096.23157285  .00001078  00000-0  98157-4 0  9999,2 55647  69.9996 157.9867 0003081 269.6696  90.4110 14.98330613 63121,6950.191,96.107,574.197,569.915,0.0
55647.0,STARLINK-5510,PAYLOAD,2024-04-05 13:34:07,14.9833563,0.000314,69.9995,157.145,270.0883,89.9916,0.00011848,1.321e-05,0.0,0 STARLINK-5510,1 55647U 23021V   24096.56536848  .00001321  00000-0  11848-3 0  9993,2 55647  69.9995 157.1450 0003140 270.0883  89.9916 14.98335630 63479,6950.175,96.107,574.223,569.858,0.0
55647.0,STARLINK-5510,PAYLOAD,2024-04-06 10:23:53,14.98328174,0.0003146,69.9995,154.9576,271.2644,88.8155,2.3282e-05,1.85e-06,0.0,0 STARLINK-5510,1 55647U 23021V   24097.43325535  .00000185  00000-0  23282-4 0  9992,2 55647  69.9995 154.9576 0003146 271.2644  88.8155 14.98328174 63307,6950.199,96.107,574.25,569.877,0.0
55647.0,STARLINK-5510,PAYLOAD,2024-04-06 13:36:09,14.98328738,0.0003141,69.9995,154.621,271.3077,88.7723,2.8038e-05,2.42e-06,0.0,0 STARLINK-5510,1 55647U 23021V   24097.56677498  .00000242  00000-0  28038-4 0  9992,2 55647  69.9995 154.6210 0003141 271.3077  88.7723 14.98328738 63626,6950.197,96.107,574.245,569.879,0.0
55647.0,STARLINK-5510,PAYLOAD,2024-04-06 21:36:50,14.98320301,0.0002979,69.9992,153.7787,268.4406,91.6412,0.00011103,1.232e-05,0.0,0 STARLINK-5510,1 55647U 23021V   24097.90057894  .00001232  00000-0  11103-3 0  9996,2 55647  69.9992 153.7787 0002979 268.4406  91.6412 14.98320301 63674,6950.223,96.108,574.158,570.017,0.0
55647.0,STARLINK-5510,PAYLOAD,2024-04-07 13:38:10,14.98332665,0.0003159,69.9993,152.0952,271.7462,88.3335,-3.2544e-05,-4.81e-06,0.0,0 STARLINK-5510,1 55647U 23021V   24098.56817385 -.00000481  00000-0 -32544-4 0  9998,2 55647  69.9993 152.0952 0003159 271.7462  88.3335 14.98332665 63775,6950.185,96.107,574.245,569.854,0.0
55647.0,STARLINK-5510,PAYLOAD,2024-04-08 13:40:10,14.98332353,0.0003145,69.9992,149.5705,272.7171,87.3628,6.8804e-05,7.28e-06,0.0,0 STARLINK-5510,1 55647U 23021V   24099.56957052  .00000728  00000-0  68804-4 0  9995,2 55647  69.9992 149.5705 0003145 272.7171  87.3628 14.98332353 63929,6950.186,96.107,574.236,569.865,0.0
55647.0,STARLINK-5510,PAYLOAD,2024-04-08 20:04:43,14.98331024,0.0003127,69.9992,148.8972,273.0213,87.0588,5.6744e-05,5.84e-06,0.0,0 STARLINK-5510,1 55647U 23021V   24099.83661141  .00000584  00000-0  56744-4 0  9996,2 55647  69.9992 148.8972 0003127 273.0213  87.0588 14.98331024 63665,6950.19,96.107,574.228,569.881,0.0
55647.0,STARLINK-5510,PAYLOAD,2024-04-09 08:53:47,14.98331086,0.0003115,69.9992,147.5506,272.6194,87.4608,4.4399e-05,4.37e-06,0.0,0 STARLINK-5510,1 55647U 23021V   24100.37069134  .00000437  00000-0  44399-4 0  9992,2 55647  69.9992 147.5506 0003115 272.6194  87.4608 14.98331086 64042,6950.19,96.107,574.22,569.89,0.0
55647.0,STARLINK-5510,PAYLOAD,2024-04-09 20:06:44,14.98333079,0.0003125,69.9993,146.3726,271.9309,88.1492,7.4355e-07,-8.4e-07,0.0,0 STARLINK-5510,1 55647U 23021V   24100.83801051 -.00000084  00000-0  74355-6 0  9991,2 55647  69.9993 146.3726 0003125 271.9309  88.1492 14.98333079 63812,6950.183,96.107,574.22,569.876,0.0
55647.0,STARLINK-5510,PAYLOAD,2024-04-10 13:44:12,14.98332052,0.0003095,69.9991,144.5211,270.5832,89.4973,-6.5117e-06,-1.71e-06,0.0,0 STARLINK-5510,1 55647U 23021V   24101.57237056 -.00000171  00000-0 -65117-5 0  9994,2 55647  69.9991 144.5211 0003095 270.5832  89.4973 14.98332052 64225,6950.187,96.107,574.203,569.9,0.0
55647.0,STARLINK-5510,PAYLOAD,2024-04-10 20:08:44,14.98338078,0.0003098,69.9992,143.8477,270.9671,89.1133,-0.00013284,-1.678e-05,0.0,0 STARLINK-5510,1 55647U 23021V   24101.83940907 -.00001678  00000-0 -13284-3 0  9998,2 55647  69.9992 143.8477 0003098 270.9671  89.1133 14.98338078 63969,6950.168,96.106,574.186,569.88,0.0
55647.0,STARLINK-5510,PAYLOAD,2024-04-11 12:10:05,14.98327476,0.0003025,69.9988,142.1641,267.9438,92.1374,1.2134e-07,-9.2e-07,0.0,0 STARLINK-5510,1 55647U 23021V   24102.50701293 -.00000092  00000-0  12134-6 0  9990,2 55647  69.9988 142.1641 0003025 267.9438  92.1374 14.98327476 64069,6950.201,96.107,574.168,569.963,0.0
55647.0,STARLINK-5510,PAYLOAD,2024-04-11 20:10:45,14.98335717,0.0003102,69.9986,141.3222,265.0074,95.0731,-0.0001061,-1.359e-05,0.0,0 STARLINK-5510,1 55647U 23021V   24102.84080921 -.00001359  00000-0 -10610-3 0  9997,2 55647  69.9986 141.3222 0003102 265.0074  95.0731 14.98335717 64419,6950.175,96.107,574.196,569.884,0.0
55647.0,STARLINK-5510,PAYLOAD,2024-04-12 12:12:06,14.98331029,0.0003164,69.9986,139.6387,268.6121,91.4676,3.5686e-05,3.33e-06,0.0,0 STARLINK-5510,1 55647U 23021V   24103.50840979  .00000333  00000-0  35686-4 0  9998,2 55647  69.9986 139.6387 0003164 268.6121  91.4676 14.98331029 64219,6950.19,96.107,574.254,569.856,0.0
55647.0,STARLINK-5510,PAYLOAD,2024-04-13 12:14:07,14.98331352,0.0003184,69.9985,137.1138,268.5647,91.5147,4.6861e-05,4.66e-06,0.0,0 STARLINK-5510,1 55647U 23021V   24104.50980947  .00000466  00000-0  46861-4 0  9993,2 55647  69.9985 137.1138 0003184 268.5647  91.5147 14.98331352 64368,6950.189,96.107,574.267,569.841,0.0
55647.0,STARLINK-5510,PAYLOAD,2024-04-14 12:16:08,14.98331836,0.0003077,69.9988,134.5902,266.6148,93.4659,3.6862e-05,3.47e-06,0.0,0 STARLINK-5510,1 55647U 23021V   24105.51120914  .00000347  00000-0  36862-4 0  9993,2 55647  69.9988 134.5902 0003077 266.6148  93.4659 14.98331836 64510,6950.187,96.107,574.191,569.914,0.0
55647.0,STARLINK-5510,PAYLOAD,2024-04-15 10:42:01,14.98332013,0.0003091,69.9987,132.2332,269.0768,91.0037,3.261e-05,2.96e-06,0.0,0 STARLINK-5510,1 55647U 23021V   24106.44584836  .00000296  00000-0  32610-4 0  9993,2 55647  69.9987 132.2332 0003091 269.0768  91.0037 14.98332013 64952,6950.187,96.107,574.2,569.903,0.0
55647.0,STARLINK-5510,PAYLOAD,2024-04-15 18:42:41,14.98331845,0.000308,69.9987,131.3913,269.5902,90.4904,1.6406e-05,1.03e-06,0.0,0 STARLINK-5510,1 55647U 23021V   24106.77964869  .00000103  00000-0  16406-4 0  9999,2 55647  69.9987 131.3913 0003080 269.5902  90.4904 14.98331845 64701,6950.187,96.107,574.193,569.912,0.0
55647.0,STARLINK-5510,PAYLOAD,2024-04-16 10:44:02,14.98330678,0.000303,69.9987,129.7082,269.6276,90.4536,2.6402e-05,2.22e-06,0.0,0 STARLINK-5510,1 55647U 23021V   24107.44724941  .00000222  00000-0  26402-4 0  9998,2 55647  69.9987 129.7082 0003030 269.6276  90.4536 14.98330678 65108,6950.191,96.107,574.162,569.95,0.0
55647.0,STARLINK-5510,PAYLOAD,2024-04-17 04:21:30,14.98334455,0.0003081,69.9985,127.8565,269.7145,90.3661,7.0314e-05,7.46e-06,0.0,0 STARLINK-5510,1 55647U 23021V   24108.18160519  .00000746  00000-0  70314-4 0  9997,2 55647  69.9985 127.8565 0003081 269.7145  90.3661 14.98334455 64916,6950.179,96.107,574.185,569.903,0.0
55647.0,STARLINK-5510,PAYLOAD,2024-04-17 10:46:02,14.98335856,0.0003073,69.9985,127.1832,269.5762,90.5045,8.4059e-05,9.1e-06,0.0,0 STARLINK-5510,1 55647U 23021V   24108.44864342  .00000910  00000-0  84059-4 0  9995,2 55647  69.9985 127.1832 0003073 269.5762  90.5045 14.98335856 65252,6950.175,96.107,574.176,569.904,0.0
55647.0,STARLINK-5510,PAYLOAD,2024-04-18 04:23:32,14.98324903,0.0003039,69.9983,125.3315,268.9656,91.1155,-8.4552e-06,-1.94e-06,0.0,0 STARLINK-5510,1 55647U 23021V   24109.18301305 -.00000194  00000-0 -84552-5 0  9997,2 55647  69.9983 125.3315 0003039 268.9656  91.1155 14.98324903 65062,6950.209,96.107,574.186,569.961,0.0
55647.0,STARLINK-5510,PAYLOAD,2024-04-18 10:48:04,14.98323125,0.000306,69.9983,124.6581,268.9542,91.1267,-3.3412e-05,-4.92e-06,0.0,0 STARLINK-5510,1 55647U 23021V   24109.45005571 -.00000492  00000-0 -33412-4 0  9992,2 55647  69.9983 124.6581 0003060 268.9542  91.1267 14.98323125 65404,6950.214,96.107,574.206,569.952,0.0
55647.0,STARLINK-5510,PAYLOAD,2024-04-19 04:25:33,14.98330813,0.0003081,69.9983,122.8068,267.2763,92.8043,-3.3701e-06,-1.33e-06,0.0,0 STARLINK-5510,1 55647U 23021V   24110.18441128 -.00000133  00000-0 -33701-5 0  9990,2 55647  69.9983 122.8068 0003081 267.2763  92.8043 14.98330813 65215,6950.19,96.107,574.197,569.914,0.0
55647.0,STARLINK-5510,PAYLOAD,2024-04-19 10:50:05,14.98331685,0.0003102,69.9983,122.1333,269.0258,91.0546,5.924e-06,-2.2e-07,0.0,0 STARLINK-5510,1 55647U 23021V   24110.45145059 -.00000022  00000-0  59240-5 0  9996,2 55647  69.9983 122.1333 0003102 269.0258  91.0546 14.98331685 65550,6950.188,96.107,574.209,569.897,0.0
55647.0,STARLINK-5510,PAYLOAD,2024-04-20 04:27:33,14.98332505,0.0003216,69.9982,120.2812,271.1408,88.9383,0.00017088,1.947e-05,0.0,0 STARLINK-5510,1 55647U 23021V   24111.18580559  .00001947  00000-0  17088-3 0  9993,2 55647  69.9982 120.2812 0003216 271.1408  88.9383 14.98332505 65362,6950.185,96.107,574.285,569.815,0.0
55647.0,STARLINK-5510,PAYLOAD,2024-04-20 10:52:05,14.98337195,0.0003143,69.9981,119.6078,269.2407,90.8392,0.00022199,2.557e-05,0.0,0 STARLINK-5510,1 55647U 23021V   24111.45284136  .00002557  00000-0  22199-3 0  9992,2 55647  69.9981 119.6078 0003143 269.2407  90.8392 14.98337195 65703,6950.171,96.107,574.22,569.851,0.0
